STARLINK-34462          
1 64493U 25133X   26068.52550005  .00039735  00000+0  13454-2 0  9999
2 64493  53.1596 117.5291 0001182 222.9201 137.1708 15.30226298 41160
2025-313BC              
1 67298U 25313BC  26068.18968176  .00075331  00000+0  26410-2 0  9997
2 67298  97.3985 144.8110 0008478 328.9209  31.1528 15.29126358  7890
